     2.11           N: GPS NAV DATA                         RINEX VERSION / TYPE
teqc  2018Dec12     gpsops              20220106 01:04:11UTCPGM / RUN BY / DATE
Linux 2.6.32-573.12.1.x86_64|x86_64|gcc -static|Linux 64|=+ COMMENT
CHPI                                    MARKER NAME         COMMENT
41609M003                               MARKER NUMBER       COMMENT
4164613.9484 -4162456.9866 -2445028.7316                    COMMENT
                                                            COMMENT
This data is provided as a public service by NASA/JPL.      COMMENT
No warranty is expressed or implied regarding suitability   COMMENT
for use.  For further information, contact:                 COMMENT
Dave Stowers, NASA/JPL m/s 238-600                          COMMENT
4800 Oak Grove Drive, Pasadena CA 91109 USA                 COMMENT
                                                            END OF HEADER
27 22  1  5  2  0  0.0 4.906160756946D-05 2.421529643470D-11 0.000000000000D+00
    4.200000000000D+01 1.343125000000D+02 4.013381459161D-09 2.797268043476D+00
    6.916001439095D-06 9.954043547623D-03 9.626150131226D-06 5.153653654099D+03
    2.664000000000D+05-7.078051567078D-08-2.220287456410D+00-1.378357410431D-07
    9.739450126962D-01 2.004062500000D+02 6.276939837796D-01-7.638532461252D-09
    1.089331089298D-10 1.000000000000D+00 2.191000000000D+03 0.000000000000D+00
    2.800000000000D+00 0.000000000000D+00 1.862645149231D-09 4.200000000000D+01
    2.647980000000D+05 4.000000000000D+00
14 22  1  5  2 29 36.0-6.601121276617D-05-5.570655048359D-12 0.000000000000D+00
    7.600000000000D+01 9.906250000000D+00 4.625192657839D-09-4.785833302081D-01
    4.880130290985D-07 1.280603813939D-03 1.027621328831D-05 5.153644554138D+03
    2.681760000000D+05 3.539025783539D-08 3.057576731407D+00 3.911554813385D-08
    9.546063475061D-01 1.780937500000D+02 3.060294446987D+00-7.907829392836D-09
   -5.543088034723D-10 1.000000000000D+00 2.191000000000D+03 0.000000000000D+00
    2.000000000000D+00 0.000000000000D+00-7.916241884232D-09 5.880000000000D+02
    2.649180000000D+05 4.000000000000D+00
 2 22  1  5  2  0  0.0-6.477716378868D-04-1.023181539495D-12 0.000000000000D+00
    5.100000000000D+01 4.321875000000D+01 4.900561270904D-09 7.377779650593D-01
    1.985579729080D-06 2.065600454807D-02 9.797513484955D-07 5.153664699554D+03
    2.664000000000D+05-2.700835466385D-07-1.248378720350D+00-2.272427082062D-07
    9.646978592409D-01 3.690312500000D+02-1.462197808625D+00-8.945729768409D-09
   -7.857470152314D-12 1.000000000000D+00 2.191000000000D+03 0.000000000000D+00
    2.000000000000D+00 0.000000000000D+00-1.769512891769D-08 5.100000000000D+01
    2.658420000000D+05 4.000000000000D+00
20 22  1  5  2  0  0.0 5.173198878765D-04-2.273736754432D-13 0.000000000000D+00
    1.400000000000D+01-1.462812500000D+02 4.875917387245D-09 1.644680264152D+00
   -7.476657629013D-06 5.355128436349D-03 5.109235644341D-06 5.153723876953D+03
    2.664000000000D+05-4.097819328308D-08-2.774947920519D-01 1.229345798492D-07
    9.415644533103D-01 2.726875000000D+02 3.091263647379D+00-8.423922318749D-09
   -4.096599211229D-10 1.000000000000D+00 2.191000000000D+03 0.000000000000D+00
    2.000000000000D+00 0.000000000000D+00-8.381903171539D-09 1.400000000000D+01
    2.661780000000D+05 4.000000000000D+00
 7 22  1  5  4  0  0.0 2.985824830830D-04 3.865352482535D-12 0.000000000000D+00
    3.500000000000D+01 1.368750000000D+01 5.245218484404D-09 9.622115363384D-01
    8.195638656616D-07 1.539724215399D-02 5.695968866348D-06 5.153696319580D+03
    2.736000000000D+05-1.750886440277D-07 1.975940796380D+00 1.396983861923D-07
    9.505968884274D-01 2.671562500000D+02-2.297477797824D+00-8.550713314388D-09
    1.785788670980D-11 1.000000000000D+00 2.191000000000D+03 0.000000000000D+00
    2.000000000000D+00 0.000000000000D+00-1.117587089539D-08 3.500000000000D+01
    2.664180000000D+05 4.000000000000D+00
 9 22  1  5  4  0  0.0-3.588246181607D-04 1.023181539495D-12 0.000000000000D+00
    2.700000000000D+01-2.984375000000D+01 4.450185368083D-09-2.033963452616D+00
   -1.590698957443D-06 2.350164228119D-03 1.115538179874D-05 5.153650096893D+03
    2.736000000000D+05 2.980232238770D-08 9.036256976031D-01 2.980232238770D-08
    9.539014594475D-01 1.615625000000D+02 1.857341274291D+00-7.862113202858D-09
    4.621621080497D-10 1.000000000000D+00 2.191000000000D+03 0.000000000000D+00
    2.000000000000D+00 0.000000000000D+00 1.396983861923D-09 2.700000000000D+01
    2.664180000000D+05 4.000000000000D+00
 4 22  1  5  4  0  0.0-1.963400281966D-04 1.591615728103D-12 0.000000000000D+00
    3.700000000000D+01-2.350000000000D+01 4.287321441290D-09-2.833551434231D+00
   -1.221895217896D-06 1.635941676795D-03 1.095794141293D-05 5.153669017792D+03
    2.736000000000D+05 3.166496753693D-08 9.562530110219D-01-2.421438694000D-08
    9.608823362862D-01 1.695625000000D+02-3.113004007124D+00-7.752822936194D-09
    5.393081786361D-10 1.000000000000D+00 2.191000000000D+03 0.000000000000D+00
    2.000000000000D+00 0.000000000000D+00-4.190951585770D-09 3.700000000000D+01
    2.664180000000D+05 4.000000000000D+00
30 22  1  5  4  0  0.0-5.044951103628D-04-2.728484105319D-12 0.000000000000D+00
    6.000000000000D+01 1.343750000000D+01 5.537730668710D-09 9.676037792327D-01
    7.823109626770D-07 5.392428371124D-03 5.066394805908D-06 5.153586351395D+03
    2.736000000000D+05-2.793967723846D-08 1.989721203806D+00 9.313225746155D-08
    9.357769240993D-01 2.686562500000D+02-2.754085422804D+00-8.556070680401D-09
    8.857511808063D-11 1.000000000000D+00 2.191000000000D+03 0.000000000000D+00
    2.000000000000D+00 0.000000000000D+00 3.725290298462D-09 6.000000000000D+01
    2.664180000000D+05 4.000000000000D+00
 3 22  1  5  4  0  0.0-6.618537008762D-05-1.421085471520D-11 0.000000000000D+00
    4.900000000000D+01-1.383125000000D+02 4.163387707524D-09 4.463423946495D-01
   -7.247552275658D-06 3.847392043099D-03 6.465241312981D-06 5.153711990356D+03
    2.736000000000D+05-4.284083843231D-08-1.245080814385D-01 2.235174179077D-08
    9.724514084473D-01 2.606250000000D+02 9.852968854102D-01-8.039263439020D-09
   -2.817974522807D-10 1.000000000000D+00 2.191000000000D+03 0.000000000000D+00
    2.000000000000D+00 0.000000000000D+00 1.862645149231D-09 4.900000000000D+01
    2.664180000000D+05 4.000000000000D+00
 6 22  1  5  4  0  0.0 1.619006507099D-04 1.068656274583D-11 0.000000000000D+00
    7.700000000000D+01 2.000000000000D+01 4.281606917543D-09 1.998761943909D+00
    1.177191734314D-06 2.585441805422D-03 5.215406417847D-08 5.153643945694D+03
    2.736000000000D+05 6.519258022308D-08-1.168261249559D+00-3.166496753693D-08
    9.857422532644D-01 3.875625000000D+02-1.011393118846D+00-8.254629552740D-09
   -3.571577341961D-11 1.000000000000D+00 2.191000000000D+03 0.000000000000D+00
    2.000000000000D+00 0.000000000000D+00 4.190951585770D-09 7.700000000000D+01
    2.664180000000D+05 4.000000000000D+00
16 22  1  5  3 59 44.0-4.510153084993D-04-5.570655048359D-12 0.000000000000D+00
    1.900000000000D+01 8.125000000000D+00 4.247676932794D-09-1.566142888252D+00
    2.905726432800D-07 1.259741524700D-02 9.763985872269D-06 5.153579662323D+03
    2.735840000000D+05 1.769512891769D-07 3.106786913962D+00-1.564621925354D-07
    9.711773808876D-01 1.898750000000D+02 6.925414220329D-01-7.658176136632D-09
   -4.660908431259D-10 1.000000000000D+00 2.191000000000D+03 0.000000000000D+00
    2.000000000000D+00 0.000000000000D+00-1.024454832077D-08 1.900000000000D+01
    2.664180000000D+05 4.000000000000D+00
14 22  1  5  4  0  0.0-6.604194641113D-05-5.570655048359D-12 0.000000000000D+00
    7.700000000000D+01 5.500000000000D+00 4.613406452611D-09 3.127187916615D-01
    2.719461917877D-07 1.281856442802D-03 9.858980774879D-06 5.153646907806D+03
    2.736000000000D+05-2.421438694000D-08 3.057533756725D+00 5.774199962616D-08
    9.546031012909D-01 1.866250000000D+02 3.060141879261D+00-7.959617264294D-09
   -5.585946962827D-10 1.000000000000D+00 2.191000000000D+03 0.000000000000D+00
    2.000000000000D+00 0.000000000000D+00-7.916241884232D-09 5.890000000000D+02
    2.664180000000D+05 4.000000000000D+00
 8 22  1  5  4  0  0.0-5.084322765470D-05-1.477928890381D-12 0.000000000000D+00
    5.900000000000D+01 1.239375000000D+02 4.256248718415D-09-2.354452004079D+00
    6.319954991341D-06 7.072471897118D-03 1.005083322525D-05 5.153705234528D+03
    2.736000000000D+05-9.499490261078D-08-2.239431123398D+00-1.154839992523D-07
    9.652788264348D-01 1.914375000000D+02 7.303697800901D-02-7.839969423338D-09
    1.289339420448D-10 1.000000000000D+00 2.191000000000D+03 0.000000000000D+00
    2.000000000000D+00 0.000000000000D+00 5.122274160385D-09 5.900000000000D+01
    2.664180000000D+05 4.000000000000D+00
22 22  1  5  4  0  0.0-4.249294288456D-04 8.867573342286D-12 0.000000000000D+00
    8.500000000000D+01-1.386250000000D+02 4.948063249553D-09 2.721111625267D+00
   -7.217749953270D-06 6.849892088212D-03 4.535540938377D-06 5.153646745682D+03
    2.736000000000D+05 8.009374141693D-08-2.317443024975D-01 7.823109626770D-08
    9.383034348243D-01 2.780937500000D+02-8.634491307392D-01-8.317846471693D-09
   -3.032269163325D-10 1.000000000000D+00 2.191000000000D+03 0.000000000000D+00
    2.000000000000D+00 6.300000000000D+01-1.769512891769D-08 8.500000000000D+01
    2.664180000000D+05 4.000000000000D+00
11 22  1  5  4  0  0.0-1.359125599265D-05-3.501554601826D-11 0.000000000000D+00
    1.000000000000D+00 7.500000000000D+00 4.819843622976D-09-2.436069647622D+00
    4.097819328308D-07 3.237085184082D-04-8.754432201385D-08 5.153753662109D+03
    2.736000000000D+05 2.235174179077D-08-1.115235652304D+00-5.029141902924D-08
    9.614718264408D-01 3.803437500000D+02 2.789714592205D+00-8.556070680401D-09
   -1.321483616526D-11 1.000000000000D+00 2.191000000000D+03 0.000000000000D+00
    2.800000000000D+00 6.300000000000D+01-8.847564458847D-09 5.130000000000D+02
    2.664180000000D+05 4.000000000000D+00
